STARLINK-36657          
1 67835U 26033Q   26056.94107857  .00397079  00000+0  15090-2 0  9994
2 67835  43.0000 343.3778 0015542 240.5280 119.4043 15.85606479  2769
STARLINK-36650          
1 67836U 26033R   26056.18450007 -.00021912  00000+0 -83358-4 0  9995
2 67836  42.9986 348.0274 0003994 345.5617  14.5141 15.86139172  2645
STARLINK-36649          
1 67837U 26033S   26056.81347732  .00438356  00000+0  15953-2 0  9992
2 67837  42.9977 344.1400 0014495 243.6836 116.2549 15.86421885  2741
STARLINK-36654          
1 67838U 26033T   26056.87585344  .00476346  00000+0  17312-2 0  9994
2 67838  42.9987 343.7477 0014242 242.1276 117.8154 15.86366780  2756
STARLINK-36652          
1 67839U 26033U   26056.81209398  .00537729  00000+0  18961-2 0  9995
2 67839  42.9987 344.1290 0015140 243.9442 115.9873 15.86824239  2741
STARLINK-36651          
1 67840U 26033V   26056.87443148 -.01481471  00000+0 -70726-2 0  9998
2 67840  42.9992 343.7342 0005156 280.1618  79.8673 15.84427684  2754
STARLINK-36656          
1 67841U 26033W   26056.93681822 -.00373443  00000+0 -16634-2 0  9995
2 67841  42.9986 343.3406 0005119 301.3975  58.6397 15.84203515  2760
STARLINK-36653          
1 67842U 26033X   26056.87305725 -.01413617  00000+0 -67633-2 0  9998
2 67842  42.9986 343.7220 0004790 283.9864  76.0476 15.84721359  2757
STARLINK-36589          
1 67843U 26033Y   26056.87208109  .00625474  00000+0  20469-2 0  9996
2 67843  42.9991 343.7144 0003961 332.5225  27.5440 15.88265502  2759
STARLINK-36598          
1 67844U 26033Z   26056.87175525 -.01289987  00000+0 -59733-2 0  9996
2 67844  42.9990 343.7119 0004815 289.2095  70.8257 15.85124231  2750
STARLINK-36606          
1 67845U 26033AA  26056.93414331 -.00378086  00000+0 -16213-2 0  9999
2 67845  42.9985 343.3181 0005113 303.8521  56.1865 15.85002314  2769
STARLINK-36658          
1 67846U 26033AB  26056.87046842 -.00787993  00000+0 -32522-2 0  9993
2 67846  43.0004 343.6999 0008134 257.1959 102.8006 15.86673438  2753
STARLINK-36618          
1 67847U 26033AC  26056.95367356  .00445731  97920-4  66134-3 0  9997
2 67847  42.9897 342.5650 0002601 285.4299  74.6294 16.04059168  2774
STARLINK-36660          
1 67848U 26033AD  26056.93284110 -.00336523  00000+0 -14088-2 0  9990
2 67848  42.9984 343.3075 0004925 300.2872  59.7514 15.85399520  2761
STARLINK-36602          
1 67849U 26033AE  26056.17735788  .00540238  00000+0  17774-2 0  9992
2 67849  42.9989 347.9681 0004199 338.6330  21.4368 15.88355708  2640
STARLINK-36840          
1 67850U 26034A   26056.98407546 -.00421487  67677-4 -12162-2 0  9992
2 67850  53.1525 270.1569 0001659  21.7771 338.3327 15.92211404  2083
STARLINK-36348          
1 67851U 26034B   26056.98374322 -.00417339  66703-4 -11933-2 0  9993
2 67851  53.1524 270.1542 0001966  22.7292 337.3822 15.92382390  2086
STARLINK-36276          
1 67852U 26034C   26056.66668981 -.01693531  80859-3 -47178-2 0  9994
2 67852  53.1524 271.7667 0000529  98.5524 244.5044 15.93152017  1935
STARLINK-36785          
1 67853U 26034D   26056.98312562 -.00402634  63137-4 -11313-2 0  9995
2 67853  53.1524 270.1500 0001937  22.7146 337.3967 15.92709345  2081
STARLINK-36608          
1 67854U 26034E   26056.98280076  .00086809  14023-4  25127-3 0  9999
2 67854  53.1521 270.1477 0002769   1.5337 358.5698 15.93049801  2084
STARLINK-36838          
1 67855U 26034F   26056.98248495 -.00388860  59899-4 -10736-2 0  9992
2 67855  53.1523 270.1456 0001912  12.9466 347.1610 15.93037473  2082
STARLINK-36843          
1 67856U 26034G   26056.98182687 -.00380533  58047-4 -10330-2 0  9996
2 67856  53.1523 270.1409 0001827  18.0552 342.0541 15.93353134  2081
STARLINK-36828          
1 67857U 26034H   26056.98214830 -.00387141  59570-4 -10595-2 0  9990
2 67857  53.1523 270.1434 0001180 356.7873   3.3147 15.93204444  2088
STARLINK-36837          
1 67858U 26034J   26056.85606880 -.00453246  77496-4 -11985-2 0  9998
2 67858  53.1524 270.7796 0000734 309.9040  50.1923 15.93884273  2061
STARLINK-36393          
1 67859U 26034K   26056.98119856 -.00383264  58879-4 -10234-2 0  9997
2 67859  53.1521 270.1366 0001425 350.5066   9.5935 15.93666960  2088
STARLINK-35873          
1 67860U 26034L   26056.98092269 -.00375237  57015-4 -99464-3 0  9992
2 67860  53.1524 270.1350 0001867  26.3791 333.7331 15.93800518  2114
STARLINK-36325          
1 67861U 26034M   26056.98060565 -.00370145  55888-4 -97263-3 0  9991
2 67861  53.1520 270.1328 0001091 356.7714   3.3307 15.93963755  2082
STARLINK-36332          
1 67862U 26034N   26056.85489715 -.00349347  51359-4 -88990-3 0  9996
2 67862  53.1528 270.7703 0002631 328.8872  31.2000 15.94528469  2068
STARLINK-36835          
1 67863U 26034P   26056.98000394 -.00135727  17228-4 -34348-3 0  9993
2 67863  53.1518 270.1283 0001596 346.5551  13.5435 15.94344069  2084
STARLINK-36831          
1 67864U 26034Q   26056.97972787 -.00124043  16221-4 -31092-3 0  9991
2 67864  53.1521 270.1266 0001960 357.5746   2.5273 15.94474564  2085
STARLINK-36738          
1 67865U 26034R   26056.72870815 -.00504377  94017-4 -12416-2 0  9993
2 67865  53.1526 271.4071 0000381 111.8696 248.2373 15.95239061  2048
STARLINK-36780          
1 67866U 26034S   26056.72843367 -.00472154  84205-4 -11524-2 0  9990
2 67866  53.1519 271.4047 0000743 339.0966  21.0033 15.95386197  2043
STARLINK-36761          
1 67867U 26034T   26056.97883289  .00127750  17517-4  32939-3 0  9998
2 67867  53.1516 270.1198 0002697   1.3320 358.7716 15.94989260  2088
STARLINK-36762          
1 67868U 26034U   26056.97851926 -.00345815  50768-4 -86098-3 0  9998
2 67868  53.1519 270.1179 0001904  26.3236 333.7889 15.94955134  2081
STARLINK-36779          
1 67869U 26034V   26056.72759630 -.00507578  95557-4 -12132-2 0  9999
2 67869  53.1522 271.3996 0000517  52.4052 307.7024 15.95785069  2048
STARLINK-36770          
1 67870U 26034W   26056.97762130 -.00328165  47077-4 -79812-3 0  9993
2 67870  53.1513 270.1116 0001809  14.5455 345.5626 15.95378172  2087
STARLINK-36769          
1 67871U 26034X   26056.97790579 -.00332644  47988-4 -81500-3 0  9997
2 67871  53.1512 270.1136 0001845  13.3459 346.7618 15.95244614  2087
STARLINK-36786          
1 67872U 26034Y   26056.85203010 -.00417657  69037-4 -99267-3 0  9990
2 67872  53.1513 270.7512 0001116 316.2518  43.8422 15.95852461  2066
STARLINK-36783          
1 67873U 26034Z   26056.85175279 -.00306385  42797-4 -71780-3 0  9995
2 67873  53.1512 270.7492 0001236 312.9733  47.1193 15.96052647  2069
STARLINK-36730          
1 67874U 26034AA  26056.85149098 -.00414262  68298-4 -97075-3 0  9999
2 67874  53.1516 270.7479 0001003 324.4302  35.6660 15.96111075  2063
STARLINK-36727          
1 67875U 26034AB  26056.97649155 -.00343787  50749-4 -81396-3 0  9996
2 67875  53.1521 270.1035 0001848  24.8693 335.2425 15.95882588  2086
STARLINK-36743          
1 67876U 26034AC  26056.97619356 -.00328767  47491-4 -77182-3 0  9996
2 67876  53.1514 270.1018 0001960  24.2040 335.9081 15.96028427  2085
STARLINK-36784          
1 67877U 26034AD  26056.97591533 -.00329623  47733-4 -76865-3 0  9991
2 67877  53.1520 270.0995 0001791  31.8132 328.3005 15.96152430  2088
STARLINK-36689          
1 67878U 26034AE  26056.85041013 -.00281584  38158-4 -63674-3 0  9990
2 67878  53.1516 270.7404 0001061 313.0263  47.0677 15.96679284  2065
STARLINK-36818          
1 67879U 26035A   26056.77017578  .00655345  22759-3  74554-3 0  9998
2 67879  97.2840 348.0666 0003004 131.4032 228.7510 16.09212275  1936
STARLINK-36821          
1 67880U 26035B   26056.76988516  .00621305  20337-3  69999-3 0  9994
2 67880  97.2840 348.0672 0003257 157.0244 203.1186 16.09355761  1938
STARLINK-36808          
1 67881U 26035C   26056.77004729  .00041012  30717-5  48029-4 0  9999
2 67881  97.2835 348.0672 0001103 123.8640 236.2748 16.08962778  1934
STARLINK-36817          
1 67882U 26035D   26056.95614109  .00013712  23923-5  16454-4 0  9993
2 67882  97.2838 348.2733 0000120 334.4435  25.6843 16.09117491  1962
STARLINK-36856          
1 67883U 26035E   26056.76971198  .00013117  23850-5  15661-4 0  9994
2 67883  97.2835 348.0673 0000746  98.2349 261.9019 16.09229842  1935
STARLINK-36842          
1 67884U 26035F   26056.95598559 -.00023066  25198-5 -25319-4 0  9996
2 67884  97.2838 348.2733 0000842 352.6967   7.4303 16.09198724  1964
STARLINK-36826          
1 67885U 26035G   26056.95585369 -.00028577  26413-5 -31419-4 0  9993
2 67885  97.2837 348.2736 0000731   0.6799 359.4486 16.09271972  1966
STARLINK-36390          
1 67886U 26035H   26056.95567012  .00003265  23091-5  44604-5 0  9994
2 67886  97.2835 348.2735 0000812 335.0772  25.0472 16.09425559  1963
STARLINK-36368          
1 67887U 26035J   26056.95549081  .00070363  45821-5  78493-4 0  9991
2 67887  97.2828 348.2741 0000802 137.5190 222.6156 16.09607275  1962
STARLINK-36801          
1 67888U 26035K   26056.95532393  .00028050  26731-5  31584-4 0  9995
2 67888  97.2834 348.2743 0000218  32.5899 327.5398 16.09700536  1960
STARLINK-36372          
1 67889U 26035L   26056.95499458  .00111528  80797-5  12100-3 0  9997
2 67889  97.2827 348.2746 0000662 127.6061 232.5283 16.09980005  1965
STARLINK-36363          
1 67890U 26035M   26056.95513740  .00035847  29044-5  39745-4 0  9992
2 67890  97.2831 348.2746 0000471 119.4689 240.6641 16.09854069  1963
STARLINK-36816          
1 67891U 26035N   26056.95258053  .00094881  66005-5  91984-4 0  9990
2 67891  97.2817 348.2775 0000842   5.1269 355.0024 16.11709527  1964
STARLINK-36813          
1 67892U 26035P   26056.89157773 -.00037186  29052-5 -36796-4 0  9999
2 67892  97.2822 348.2076 0000803 105.9993 254.1380 16.10983780  1952
STARLINK-36803          
1 67893U 26035Q   26056.95480051  .00086540  57819-5  93189-4 0  9992
2 67893  97.2826 348.2750 0000574 128.6434 231.4901 16.10123857  1962
